CCSDS_OMM_VERS,COMMENT,CREATION_DATE,ORIGINATOR,OBJECT_NAME,OBJECT_ID,CENTER_NAME,REF_FRAME,TIME_SYSTEM,MEAN_ELEMENT_THEORY,EPOCH,MEAN_MOTION,ECCENTRICITY,INCLINATION,RA_OF_ASC_NODE,ARG_OF_PERICENTER,MEAN_ANOMALY,EPHEMERIS_TYPE,CLASSIFICATION_TYPE,NORAD_CAT_ID,ELEMENT_SET_NO,REV_AT_EPOCH,BSTAR,MEAN_MOTION_DOT,MEAN_MOTION_DDOT,SEMIMAJOR_AXIS,PERIOD,APOAPSIS,PERIAPSIS,OBJECT_TYPE,RCS_SIZE,COUNTRY_CODE,LAUNCH_DATE,SITE,DECAY_DATE,FILE,GP_ID,TLE_LINE0,TLE_LINE1,TLE_LINE2
"2.0","GENERATED VIA SPACE-TRACK.ORG API","2019-10-12T14:40:17","18 SPCS","AEOLUS","2018-066A","EARTH","TEME","UTC","SGP4","2019-10-12T12:47:32.464896","15.86964753","0.00040960","96.7208","290.6544","91.7583","27.7402","0","U","43600","999","6589","0.00012415000000","0.00031763","0.0000000000000","6688.935","90.739","313.539","308.060","PAYLOAD","LARGE","ESA","2018-08-22","FRGUI","","2631434","141138305","0 AEOLUS","1 43600U 18066A   19285.53301464  .00031763  00000-0  12415-3 0  9991","2 43600  96.7208 290.6544 0004096  91.7583  27.7402 15.86964753 65893"
"2.0","GENERATED VIA SPACE-TRACK.ORG API","2019-10-12T22:40:18","18 SPCS","AEOLUS","2018-066A","EARTH","TEME","UTC","SGP4","2019-10-12T15:35:26.645280","15.86968715","0.00040240","96.7207","290.7694","92.8538","332.3194","0","U","43600","999","6591","0.00012078000000","0.00030899","0.0000000000000","6688.924","90.739","313.480","308.097","PAYLOAD","LARGE","ESA","2018-08-22","FRGUI","","2631833","141166666","0 AEOLUS","1 43600U 18066A   19285.64961395  .00030899  00000-0  12078-3 0  9992","2 43600  96.7207 290.7694 0004024  92.8538 332.3194 15.86968715 65910"
"2.0","GENERATED VIA SPACE-TRACK.ORG API","2019-10-13T04:05:53","18 SPCS","STARLINK-44","2019-029AC","EARTH","TEME","UTC","SGP4","2019-10-12T22:03:16.693344","15.05489450","0.00012340","53.0004","255.5405","82.5900","277.5228","0","U","44261","999","2058","0.00008657600000","0.00000980","0.0000000000000","6928.140","95.649","550.860","549.150","PAYLOAD","LARGE","US","2019-05-24","AFETR","","2631885","141185604","0 STARLINK-44","1 44261U 19029AC  19285.91894321 +.00000980 +00000-0 +86576-4 0  9993","2 44261 053.0004 255.5405 0001234 082.5900 277.5228 15.05489450020580"
"2.0","GENERATED VIA SPACE-TRACK.ORG API","2019-10-13T06:40:17","18 SPCS","AEOLUS","2018-066A","EARTH","TEME","UTC","SGP4","2019-10-13T00:38:42.351648","15.86992609","0.00040270","96.7206","291.1413","92.1950","326.8640","0","U","43600","999","6597","0.00012106000000","0.00031008","0.0000000000000","6688.856","90.737","313.415","308.028","PAYLOAD","LARGE","ESA","2018-08-22","FRGUI","","2632176","141192784","0 AEOLUS","1 43600U 18066A   19286.02687907  .00031008  00000-0  12106-3 0  9994","2 43600  96.7206 291.1413 0004027  92.1950 326.8640 15.86992609 65976"
"2.0","GENERATED VIA SPACE-TRACK.ORG API","2019-10-14T04:07:51","18 SPCS","STARLINK-44","2019-029AC","EARTH","TEME","UTC","SGP4","2019-10-13T07:36:51.498144","15.05491065","0.00012420","53.0004","253.7526","82.5980","277.5149","0","U","44261","999","2064","0.00009258600000","0.00001067","0.0000000000000","6928.135","95.649","550.861","549.140","PAYLOAD","LARGE","US","2019-05-24","AFETR","","2632981","141246712","0 STARLINK-44","1 44261U 19029AC  19286.31726271 +.00001067 +00000-0 +92586-4 0  9991","2 44261 053.0004 253.7526 0001242 082.5980 277.5149 15.05491065020645"
"2.0","GENERATED VIA SPACE-TRACK.ORG API","2019-10-13T14:40:17","18 SPCS","AEOLUS","2018-066A","EARTH","TEME","UTC","SGP4","2019-10-13T13:00:12.813408","15.87020838","0.00039170","96.7206","291.6499","90.4181","28.5548","0","U","43600","999","6605","0.00011736000000","0.00030094","0.0000000000000","6688.777","90.736","313.262","308.022","PAYLOAD","LARGE","ESA","2018-08-22","FRGUI","","2632559","141200601","0 AEOLUS","1 43600U 18066A   19286.54181497  .00030094  00000-0  11736-3 0  9996","2 43600  96.7206 291.6499 0003917  90.4181  28.5548 15.87020838 66059"
"2.0","GENERATED VIA SPACE-TRACK.ORG API","2019-10-13T22:30:21","18 SPCS","AEOLUS","2018-066A","EARTH","TEME","UTC","SGP4","2019-10-13T17:16:07.991616","15.87023734","0.00040310","96.7203","291.8241","96.9807","316.6500","0","U","43600","999","6608","0.00011044000000","0.00028311","0.0000000000000","6688.769","90.735","313.330","307.938","PAYLOAD","LARGE","ESA","2018-08-22","FRGUI","","2632942","141227664","0 AEOLUS","1 43600U 18066A   19286.71953694  .00028311  00000-0  11044-3 0  9992","2 43600  96.7203 291.8241 0004031  96.9807 316.6500 15.87023734 66087"
"2.0","GENERATED VIA SPACE-TRACK.ORG API","2019-10-14T06:40:20","18 SPCS","AEOLUS","2018-066A","EARTH","TEME","UTC","SGP4","2019-10-14T02:17:42.124416","15.87045411","0.00041780","96.7210","292.1948","93.8843","306.9927","0","U","43600","999","6614","0.00011019000000","0.00028277","0.0000000000000","6688.708","90.734","313.368","307.779","PAYLOAD","LARGE","ESA","2018-08-22","FRGUI","","2633332","141274246","0 AEOLUS","1 43600U 18066A   19287.09562644  .00028277  00000-0  11019-3 0  9998","2 43600  96.7210 292.1948 0004178  93.8843 306.9927 15.87045411 66149"
"2.0","GENERATED VIA SPACE-TRACK.ORG API","2019-10-14T06:20:16","18 SPCS","STARLINK-44","2019-029AC","EARTH","TEME","UTC","SGP4","2019-10-14T04:19:36.826176","15.05493372","0.00012780","53.0005","249.8789","81.1211","278.9922","0","U","44261","999","2171","0.00009186200000","0.00001056","0.0000000000000","6928.128","95.649","550.879","549.108","PAYLOAD","LARGE","US","2019-05-24","AFETR","","2633038","141267094","0 STARLINK-44","1 44261U 19029AC  19287.18028734  .00001056  00000-0  91862-4 0  9990","2 44261  53.0005 249.8789 0001278  81.1211 278.9922 15.05493372 21710"
"2.0","GENERATED VIA SPACE-TRACK.ORG API","2019-10-15T04:24:25","18 SPCS","STARLINK-44","2019-029AC","EARTH","TEME","UTC","SGP4","2019-10-14T09:06:24.193152","15.05493972","0.00012950","53.0005","248.9850","80.7100","279.4034","0","U","44261","999","2080","0.00009275600000","0.00001070","0.0000000000000","6928.126","95.649","550.888","549.094","PAYLOAD","LARGE","US","2019-05-24","AFETR","","2634271","141331516","0 STARLINK-44","1 44261U 19029AC  19287.37944668 +.00001070 +00000-0 +92756-4 0  9993","2 44261 053.0005 248.9850 0001295 080.7100 279.4034 15.05493972020805"
"2.0","GENERATED VIA SPACE-TRACK.ORG API","2019-10-14T14:40:19","18 SPCS","AEOLUS","2018-066A","EARTH","TEME","UTC","SGP4","2019-10-14T11:44:04.327872","15.87063781","0.00039260","96.7196","292.5810","91.9615","34.5108","0","U","43600","999","6620","0.00010650000000","0.00027346","0.0000000000000","6688.656","90.733","313.147","307.895","PAYLOAD","LARGE","ESA","2018-08-22","FRGUI","","2633739","141282542","0 AEOLUS","1 43600U 18066A   19287.48893898  .00027346  00000-0  10650-3 0  9995","2 43600  96.7196 292.5810 0003926  91.9615  34.5108 15.87063781 66202"
"2.0","GENERATED VIA SPACE-TRACK.ORG API","2019-10-14T22:40:18","18 SPCS","AEOLUS","2018-066A","EARTH","TEME","UTC","SGP4","2019-10-14T18:59:22.500096","15.87071682","0.00040270","96.7210","292.8805","92.6228","319.7828","0","U","43600","999","6625","0.00009775900000","0.00025094","0.0000000000000","6688.634","90.733","313.193","307.806","PAYLOAD","LARGE","ESA","2018-08-22","FRGUI","","2634234","141312424","0 AEOLUS","1 43600U 18066A   19287.79123264  .00025094  00000-0  97759-4 0  9996","2 43600  96.7210 292.8805 0004027  92.6228 319.7828 15.87071682 66258"
"2.0","GENERATED VIA SPACE-TRACK.ORG API","2019-10-15T07:00:15","18 SPCS","AEOLUS","2018-066A","EARTH","TEME","UTC","SGP4","2019-10-15T02:30:23.986656","15.87071275","0.00037490","96.7231","293.1932","89.4920","311.1583","0","U","43600","999","6630","0.00008351700000","0.00021407","0.0000000000000","6688.635","90.733","313.008","307.993","PAYLOAD","LARGE","ESA","2018-08-22","FRGUI","","2634597","141339334","0 AEOLUS","1 43600U 18066A   19288.10444429  .00021407  00000-0  83517-4 0  9992","2 43600  96.7231 293.1932 0003749  89.4920 311.1583 15.87071275 66307"
"2.0","GENERATED VIA SPACE-TRACK.ORG API","2019-10-15T14:20:18","18 SPCS","STARLINK-44","2019-029AC","EARTH","TEME","UTC","SGP4","2019-10-15T09:00:20.945952","15.05496316","0.00013470","53.0005","244.5154","79.4569","280.6570","0","U","44261","999","2189","0.00008928000000","0.00001019","0.0000000000000","6928.119","95.649","550.917","549.051","PAYLOAD","LARGE","US","2019-05-24","AFETR","","2634768","141341866","0 STARLINK-44","1 44261U 19029AC  19288.37524243  .00001019  00000-0  89280-4 0  9998","2 44261  53.0005 244.5154 0001347  79.4569 280.6570 15.05496316 21890"
"2.0","GENERATED VIA SPACE-TRACK.ORG API","2019-10-15T13:20:12","18 SPCS","AEOLUS","2018-066A","EARTH","TEME","UTC","SGP4","2019-10-15T11:57:11.620224","15.87009498","0.00054330","96.7193","293.5700","97.5034","30.3407","0","U","43600","999","6636","0.00000652560000","0.00001538","0.0000000000000","6688.809","90.736","314.308","307.040","PAYLOAD","LARGE","ESA","2018-08-22","FRGUI","","2634645","141339422","0 AEOLUS","1 43600U 18066A   19288.49805116  .00001538  00000-0  65256-5 0  9992","2 43600  96.7193 293.5700 0005433  97.5034  30.3407 15.87009498 66368"
"2.0","GENERATED VIA SPACE-TRACK.ORG API","2019-10-16T05:20:13","18 SPCS","AEOLUS","2018-066A","EARTH","TEME","UTC","SGP4","2019-10-16T02:43:10.098912","15.87052230","0.00046900","96.7270","294.1799","74.6866","325.9567","0","U","43600","999","6646","0.00003049100000","0.00007711","0.0000000000000","6688.689","90.734","313.691","307.417","PAYLOAD","LARGE","ESA","2018-08-22","FRGUI","","2635573","141415632","0 AEOLUS","1 43600U 18066A   19289.11331133  .00007711  00000-0  30491-4 0  9996","2 43600  96.7270 294.1799 0004690  74.6866 325.9567 15.87052230 66465"
